start=new Date('2022-12-03T00:00:00.000Z').valueOf();
sats=[{"CENTER_NAME":"EARTH","FILE":"3679625","COUNTRY_CODE":"US","TLE_LINE1":"1 54100U 22136BB  22336.91667824 -.01158425  00000-0 -11988-1 0  9999","REV_AT_EPOCH":"130","TLE_LINE2":"2 54100  53.2166 293.6135 0001153  60.6557  20.2688 15.66644772  1301","MEAN_MOTION_DOT":"-0.01158425","MEAN_ELEMENT_THEORY":"SGP4","SITE":"AFETR","INCLINATION":"53.2166","EPHEMERIS_TYPE":"0","PERIOD":"91.916","OBJECT_ID":"2022-136BB","PERIAPSIS":"367.737","RA_OF_ASC_NODE":"293.6135","ARG_OF_PERICENTER":"60.6557","RCS_SIZE":"LARGE","MEAN_ANOMALY":"20.2688","NORAD_CAT_ID":"54100","TIME_SYSTEM":"UTC","SEMIMAJOR_AXIS":"6746.650","CLASSIFICATION_TYPE":"U","REF_FRAME":"TEME","MEAN_MOTION":"15.66644772","OBJECT_TYPE":"PAYLOAD","ELEMENT_SET_NO":"999","ECCENTRICITY":"0.00011530","BSTAR":"-0.01198800000000","GP_ID":"219384646","EPOCH":"2022-12-02T22:00:00.999936","DECAY_DATE":null,"APOAPSIS":"369.292","LAUNCH_DATE":"2022-10-20","OBJECT_NAME":"STARLINK-5185","MEAN_MOTION_DDOT":"0.0000000000000"},{"BSTAR":"-0.00031218000000","OBJECT_NAME":"STARLINK-5204","MEAN_MOTION_DDOT":"0.0000000000000","DECAY_DATE":null,"APOAPSIS":"352.367","LAUNCH_DATE":"2022-10-20","GP_ID":"219385200","EPOCH":"2022-12-02T22:00:00.999936","SEMIMAJOR_AXIS":"6727.843","NORAD_CAT_ID":"54101","TIME_SYSTEM":"UTC","RCS_SIZE":"LARGE","MEAN_ANOMALY":"111.9256","ECCENTRICITY":"0.00039520","ELEMENT_SET_NO":"999","OBJECT_TYPE":"PAYLOAD","MEAN_MOTION":"15.73218408","REF_FRAME":"TEME","CLASSIFICATION_TYPE":"U","EPHEMERIS_TYPE":"0","PERIOD":"91.532","SITE":"AFETR","INCLINATION":"53.2151","ARG_OF_PERICENTER":"4.7940","RA_OF_ASC_NODE":"293.5516","OBJECT_ID":"2022-136BC","PERIAPSIS":"347.049","CENTER_NAME":"EARTH","REV_AT_EPOCH":"130","TLE_LINE2":"2 54101  53.2151 293.5516 0003952   4.7940 111.9256 15.73218408  1302","MEAN_MOTION_DOT":"-0.00044262","MEAN_ELEMENT_THEORY":"SGP4","TLE_LINE1":"1 54101U 22136BC  22336.91667824 -.00044262  00000-0 -31218-3 0  9992","COUNTRY_CODE":"US","FILE":"3679625"},{"BSTAR":"-0.01177400000000","MEAN_MOTION_DDOT":"0.0000000000000","OBJECT_NAME":"STARLINK-5179","DECAY_DATE":null,"APOAPSIS":"369.753","LAUNCH_DATE":"2022-10-20","GP_ID":"219358883","EPOCH":"2022-12-03T00:00:00.999648","SEMIMAJOR_AXIS":"6746.980","NORAD_CAT_ID":"54102","TIME_SYSTEM":"UTC","RCS_SIZE":"LARGE","MEAN_ANOMALY":"133.2366","ECCENTRICITY":"0.00013460","ELEMENT_SET_NO":"999","OBJECT_TYPE":"PAYLOAD","MEAN_MOTION":"15.66529718","CLASSIFICATION_TYPE":"U","REF_FRAME":"TEME","EPHEMERIS_TYPE":"0","PERIOD":"91.923","SITE":"AFETR","INCLINATION":"53.2171","ARG_OF_PERICENTER":"61.3579","RA_OF_ASC_NODE":"293.1981","OBJECT_ID":"2022-136BD","PERIAPSIS":"367.937","CENTER_NAME":"EARTH","TLE_LINE2":"2 54102  53.2171 293.1981 0001346  61.3579 133.2366 15.66529718  7327","REV_AT_EPOCH":"732","MEAN_MOTION_DOT":"-0.01134908","MEAN_ELEMENT_THEORY":"SGP4","TLE_LINE1":"1 54102U 22136BD  22337.00001157 -.01134908  00000-0 -11774-1 0  9996","COUNTRY_CODE":"US","FILE":"3679552"},{"MEAN_MOTION_DDOT":"0.0000000000000","OBJECT_NAME":"STARLINK-5200","LAUNCH_DATE":"2022-10-20","APOAPSIS":"352.131","DECAY_DATE":null,"EPOCH":"2022-12-02T22:00:00.999936","GP_ID":"219384461","BSTAR":"0.00015434000000","ELEMENT_SET_NO":"999","ECCENTRICITY":"0.00035080","OBJECT_TYPE":"PAYLOAD","MEAN_MOTION":"15.73196232","CLASSIFICATION_TYPE":"U","REF_FRAME":"TEME","SEMIMAJOR_AXIS":"6727.906","TIME_SYSTEM":"UTC","NORAD_CAT_ID":"54103","MEAN_ANOMALY":"107.0039","RCS_SIZE":"LARGE","ARG_OF_PERICENTER":"10.3271","RA_OF_ASC_NODE":"293.5425","PERIAPSIS":"347.411","OBJECT_ID":"2022-136BE","PERIOD":"91.533","EPHEMERIS_TYPE":"0","SITE":"AFETR","INCLINATION":"53.2139","MEAN_ELEMENT_THEORY":"SGP4","REV_AT_EPOCH":"130","TLE_LINE2":"2 54103  53.2139 293.5425 0003508  10.3271 107.0039 15.73196232  1301","MEAN_MOTION_DOT":"0.00021094","TLE_LINE1":"1 54103U 22136BE  22336.91667824  .00021094  00000-0  15434-3 0  9992","COUNTRY_CODE":"US","FILE":"3679625","CENTER_NAME":"EARTH"},{"INCLINATION":"53.2147","SITE":"AFETR","PERIOD":"91.531","EPHEMERIS_TYPE":"0","RA_OF_ASC_NODE":"293.5461","OBJECT_ID":"2022-136BF","PERIAPSIS":"347.214","ARG_OF_PERICENTER":"7.1119","CENTER_NAME":"EARTH","COUNTRY_CODE":"US","FILE":"3679625","MEAN_ELEMENT_THEORY":"SGP4","TLE_LINE2":"2 54104  53.2147 293.5461 0003606   7.1119 110.7762 15.73241990  1301","MEAN_MOTION_DOT":"-0.00076539","REV_AT_EPOCH":"130","TLE_LINE1":"1 54104U 22136BF  22336.91667824 -.00076539  00000-0 -54465-3 0  9996","BSTAR":"-0.00054465000000","LAUNCH_DATE":"2022-10-20","APOAPSIS":"352.066","DECAY_DATE":null,"EPOCH":"2022-12-02T22:00:00.999936","GP_ID":"219385015","OBJECT_NAME":"STARLINK-5203","MEAN_MOTION_DDOT":"0.0000000000000","TIME_SYSTEM":"UTC","NORAD_CAT_ID":"54104","RCS_SIZE":"LARGE","MEAN_ANOMALY":"110.7762","SEMIMAJOR_AXIS":"6727.775","REF_FRAME":"TEME","CLASSIFICATION_TYPE":"U","ELEMENT_SET_NO":"999","ECCENTRICITY":"0.00036060","OBJECT_TYPE":"PAYLOAD","MEAN_MOTION":"15.73241990"},{"OBJECT_ID":"2022-141A","PERIAPSIS":"479.578","RA_OF_ASC_NODE":"329.2526","ARG_OF_PERICENTER":"48.0976","INCLINATION":"53.2172","SITE":"AFWTR","EPHEMERIS_TYPE":"0","PERIOD":"94.217","FILE":"3679285","COUNTRY_CODE":"US","TLE_LINE1":"1 54157U 22141A   22336.91667824 -.01239968  00000-0 -48244-1 0  9994","TLE_LINE2":"2 54157  53.2172 329.2526 0001555  48.0976 211.6036 15.28383998  5632","MEAN_MOTION_DOT":"-0.01239968","REV_AT_EPOCH":"563","MEAN_ELEMENT_THEORY":"SGP4","CENTER_NAME":"EARTH","GP_ID":"219354960","EPOCH":"2022-12-02T22:00:00.999936","DECAY_DATE":null,"APOAPSIS":"481.711","LAUNCH_DATE":"2022-10-28","MEAN_MOTION_DDOT":"0.0000000000000","OBJECT_NAME":"STARLINK-5290","BSTAR":"-0.04824400000000","CLASSIFICATION_TYPE":"U","REF_FRAME":"TEME","MEAN_MOTION":"15.28383998","OBJECT_TYPE":"PAYLOAD","ELEMENT_SET_NO":"999","ECCENTRICITY":"0.00015550","MEAN_ANOMALY":"211.6036","RCS_SIZE":"LARGE","NORAD_CAT_ID":"54157","TIME_SYSTEM":"UTC","SEMIMAJOR_AXIS":"6858.780"},{"CENTER_NAME":"EARTH","FILE":"3679289","COUNTRY_CODE":"US","TLE_LINE1":"1 54158U 22141B   22336.91667824 -.01254191  00000-0 -49744-1 0  9996","MEAN_ELEMENT_THEORY":"SGP4","TLE_LINE2":"2 54158  53.2172 329.2999 0001717  45.4304 190.4691 15.27790990  5637","REV_AT_EPOCH":"563","MEAN_MOTION_DOT":"-0.01254191","INCLINATION":"53.2172","SITE":"AFWTR","PERIOD":"94.254","EPHEMERIS_TYPE":"0","OBJECT_ID":"2022-141B","PERIAPSIS":"481.241","RA_OF_ASC_NODE":"329.2999","ARG_OF_PERICENTER":"45.4304","RCS_SIZE":"LARGE","MEAN_ANOMALY":"190.4691","TIME_SYSTEM":"UTC","NORAD_CAT_ID":"54158","SEMIMAJOR_AXIS":"6860.554","CLASSIFICATION_TYPE":"U","REF_FRAME":"TEME","OBJECT_TYPE":"PAYLOAD","MEAN_MOTION":"15.27790990","ECCENTRICITY":"0.00017170","ELEMENT_SET_NO":"999","BSTAR":"-0.04974400000000","EPOCH":"2022-12-02T22:00:00.999936","GP_ID":"219355022","LAUNCH_DATE":"2022-10-28","APOAPSIS":"483.597","DECAY_DATE":null,"MEAN_MOTION_DDOT":"0.0000000000000","OBJECT_NAME":"STARLINK-5297"},{"CLASSIFICATION_TYPE":"U","REF_FRAME":"TEME","ELEMENT_SET_NO":"999","ECCENTRICITY":"0.00017520","OBJECT_TYPE":"PAYLOAD","MEAN_MOTION":"15.27988680","TIME_SYSTEM":"UTC","NORAD_CAT_ID":"54159","MEAN_ANOMALY":"198.6989","RCS_SIZE":"LARGE","SEMIMAJOR_AXIS":"6859.963","APOAPSIS":"483.029","LAUNCH_DATE":"2022-10-28","DECAY_DATE":null,"EPOCH":"2022-12-02T22:00:00.999936","GP_ID":"219384282","OBJECT_NAME":"STARLINK-5294","MEAN_MOTION_DDOT":"0.0000000000000","BSTAR":"-0.04768600000000","COUNTRY_CODE":"US","FILE":"3679625","MEAN_ELEMENT_THEORY":"SGP4","REV_AT_EPOCH":"130","TLE_LINE2":"2 54159  53.2174 329.2823 0001752  45.9641 198.6989 15.27988680  1309","MEAN_MOTION_DOT":"-0.01213161","TLE_LINE1":"1 54159U 22141C   22336.91667824 -.01213161  00000-0 -47686-1 0  9992","CENTER_NAME":"EARTH","RA_OF_ASC_NODE":"329.2823","OBJECT_ID":"2022-141C","PERIAPSIS":"480.626","ARG_OF_PERICENTER":"45.9641","INCLINATION":"53.2174","SITE":"AFWTR","PERIOD":"94.242","EPHEMERIS_TYPE":"0"},{"SEMIMAJOR_AXIS":"6727.882","RCS_SIZE":"LARGE","MEAN_ANOMALY":"269.4288","NORAD_CAT_ID":"54160","TIME_SYSTEM":"UTC","OBJECT_TYPE":"PAYLOAD","MEAN_MOTION":"15.73204693","ELEMENT_SET_NO":"999","ECCENTRICITY":"0.00037340","REF_FRAME":"TEME","CLASSIFICATION_TYPE":"U","BSTAR":"-0.00015052000000","OBJECT_NAME":"STARLINK-5233","MEAN_MOTION_DDOT":"0.0000000000000","GP_ID":"219384467","EPOCH":"2022-12-02T22:00:00.999936","DECAY_DATE":null,"LAUNCH_DATE":"2022-10-28","APOAPSIS":"352.259","CENTER_NAME":"EARTH","TLE_LINE1":"1 54160U 22141D   22336.91667824 -.00021707  00000-0 -15052-3 0  9990","TLE_LINE2":"2 54160  53.2169 326.3406 0003734   5.0355 269.4288 15.73204693  1306","MEAN_MOTION_DOT":"-0.00021707","REV_AT_EPOCH":"130","MEAN_ELEMENT_THEORY":"SGP4","FILE":"3679625","COUNTRY_CODE":"US","EPHEMERIS_TYPE":"0","PERIOD":"91.533","SITE":"AFWTR","INCLINATION":"53.2169","ARG_OF_PERICENTER":"5.0355","PERIAPSIS":"347.235","OBJECT_ID":"2022-141D","RA_OF_ASC_NODE":"326.3406"},{"FILE":"3679289","COUNTRY_CODE":"US","TLE_LINE1":"1 54161U 22141E   22336.91667824 -.01209024  00000-0 -47426-1 0  9990","TLE_LINE2":"2 54161  53.2173 329.2742 0001669  45.3098 202.9336 15.28046425  5647","REV_AT_EPOCH":"564","MEAN_MOTION_DOT":"-0.01209024","MEAN_ELEMENT_THEORY":"SGP4","CENTER_NAME":"EARTH","OBJECT_ID":"2022-141E","PERIAPSIS":"480.510","RA_OF_ASC_NODE":"329.2742","ARG_OF_PERICENTER":"45.3098","SITE":"AFWTR","INCLINATION":"53.2173","EPHEMERIS_TYPE":"0","PERIOD":"94.238","REF_FRAME":"TEME","CLASSIFICATION_TYPE":"U","OBJECT_TYPE":"PAYLOAD","MEAN_MOTION":"15.28046425","ELEMENT_SET_NO":"999","ECCENTRICITY":"0.00016690","RCS_SIZE":"LARGE","MEAN_ANOMALY":"202.9336","NORAD_CAT_ID":"54161","TIME_SYSTEM":"UTC","SEMIMAJOR_AXIS":"6859.790","GP_ID":"219355029","EPOCH":"2022-12-02T22:00:00.999936","DECAY_DATE":null,"LAUNCH_DATE":"2022-10-28","APOAPSIS":"482.800","MEAN_MOTION_DDOT":"0.0000000000000","OBJECT_NAME":"STARLINK-5269","BSTAR":"-0.04742600000000"}];
